{"spkid": "50826913", "covariance": {"epoch": "2459089.5", "labels": ["e", "q", "tp", "node", "peri", "i", "A2"], "elements": [{"sigma": 6.70252540054988e-08, "name": "e", "units": null, "title": "eccentricity", "value": ".2157612014772909", "label": "e"}, {"label": "q", "units": "au", "title": "perihelion distance", "value": "1.026000994795169", "name": "q", "sigma": 8.6619645057898e-08}, {"label": "tp", "sigma": 6.77813054419409e-05, "name": "tp", "units": "TDB", "value": "2458862.105254536766", "title": "time of perihelion passage"}, {"sigma": 1.23987024092095e-05, "name": "om", "units": "deg", "title": "longitude of the ascending node", "value": "149.0664670549721", "label": "node"}, {"label": "peri", "title": "argument of perihelion", "value": "142.7966354257634", "units": "deg", "sigma": 6.13402534315165e-05, "name": "w"}, {"name": "i", "sigma": 1.31633999433474e-05, "title": "inclination", "value": "6.242953759684656", "units": "deg", "label": "i"}], "data": [["4.492384674501639E-15", "-5.798129181288123E-15", "4.414075156529168E-13", "-3.226328658870837E-13", "1.823097624883401E-13", "-4.213990524690351E-13", "-2.433732770549319E-21"], ["-5.798129181288123E-15", "7.50296290995623E-15", "-2.966317395883674E-13", "4.02303085974633E-13", "1.137602255627134E-14", "5.002788839258289E-13", "2.751175821548143E-21"], ["4.414075156529168E-13", "-2.966317395883674E-13", "4.594305367413682E-9", "-1.971769931928405E-10", "4.073972776899278E-9", "-6.699474000138292E-10", "-7.036196768506852E-18"], ["-3.226328658870837E-13", "4.02303085974633E-13", "-1.971769931928405E-10", "1.537278214321385E-10", "-2.90162262006955E-10", "7.850210979758889E-11", "1.285091212993832E-19"], ["1.823097624883401E-13", "1.137602255627134E-14", "4.073972776899278E-9", "-2.90162262006955E-10", "3.762626691042677E-9", "-6.068976293613814E-10", "-5.714195449387966E-18"], ["-4.213990524690351E-13", "5.002788839258289E-13", "-6.699474000138292E-10", "7.850210979758889E-11", "-6.068976293613814E-10", "1.732750980685192E-10", "8.841685353061414E-19"], ["-2.433732770549319E-21", "2.751175821548143E-21", "-7.036196768506852E-18", "1.285091212993832E-19", "-5.714195449387966E-18", "8.841685353061414E-19", "1.73106841998654E-26"]]}, "elements": [{"label": "e", "value": ".2146063264545128", "title": "eccentricity", "units": null, "name": "e", "sigma": "6.5338E-8"}, {"label": "a", "sigma": "2.9618E-8", "name": "a", "units": "au", "value": "1.30595791521725", "title": "semi-major axis"}, {"label": "q", "sigma": "9.4132E-8", "name": "q", "units": "au", "title": "perihelion distance", "value": "1.025691084528282"}, {"units": "deg", "value": "6.265008098603216", "title": "inclination; angle with respect to x-y ecliptic plane", "name": "i", "sigma": "1.3017E-5", "label": "i"}, {"name": "om", "sigma": "1.3249E-5", "units": "deg", "value": "148.7761773287", "title": "longitude of the ascending node", "label": "node"}, {"label": "peri", "name": "w", "sigma": "6.2752E-5", "value": "143.1369290783322", "title": "argument of perihelion", "units": "deg"}, {"units": "deg", "value": "102.4115936717171", "title": "mean anomaly", "sigma": "3.301E-5", "name": "ma", "label": "M"}, {"sigma": "5.2775E-5", "name": "tp", "units": "TDB", "title": "time of perihelion passage", "value": "2461045.426059219261", "label": "tp"}, {"label": "period", "title": "sidereal orbital period", "value": "545.1201048586315", "units": "d", "sigma": "1.8544E-5", "name": "per"}, {"label": "n", "sigma": "2.2466E-8", "name": "n", "units": "deg/d", "value": ".6604049213950024", "title": "mean motion"}, {"sigma": "3.5974E-8", "name": "ad", "title": "aphelion distance", "value": "1.586224745906218", "units": "au", "label": "Q"}], "epoch": "2461200.5"}